IRIDIUM 155             
1 43573U 18061E   25145.54697437  .00000098  00000+0  27914-4 0  9993
2 43573  86.4001 218.6241 0002587  99.5533 260.5955 14.34217720357797
IRIDIUM 154             
1 43574U 18061F   25145.45817772  .00000048  00000+0  99661-5 0  9994
2 43574  86.4006 218.7754 0002334  94.9253 265.2210 14.34217756357831
IRIDIUM 163             
1 43575U 18061G   25145.43914938  .00000012  00000+0 -29188-5 0  9994
2 43575  86.4005 218.7110 0002115  99.3847 260.7588 14.34217632357800
IRIDIUM 156             
1 43576U 18061H   25145.48354915  .00000025  00000+0  18491-5 0  9991
2 43576  86.4002 218.6994 0002691  96.8136 263.3366 14.34217583357807
IRIDIUM 164             
1 43577U 18061J   25145.25521515  .00000041  00000+0  75677-5 0  9996
2 43577  86.4004 218.8288 0002439  88.0438 272.1037 14.34217678357815
IRIDIUM 159             
1 43578U 18061K   25145.43280675  .00000065  00000+0  16249-4 0  9991
2 43578  86.4002 218.6996 0002119  91.2596 268.8843 14.34217921357801
IRIDIUM 180             
1 43922U 19002A   25145.43230236  .00000019  00000+0 -26309-6 0  9998
2 43922  86.3983 155.6849 0002140  92.8618 267.2823 14.34217596333414
IRIDIUM 176             
1 43923U 19002B   25145.53916708  .00000364  00000+0  53868-4 0  9995
2 43923  86.6104 155.6358 0002570 106.0792 254.0709 14.72254898342219
IRIDIUM 168             
1 43924U 19002C   25145.42596032 -.00000006  00000+0 -93019-5 0  9996
2 43924  86.3985 155.7539 0002232  90.8460 269.2991 14.34217340333392
IRIDIUM 173             
1 43925U 19002D   25145.55281168  .00000062  00000+0  14948-4 0  9995
2 43925  86.3976 155.6059 0002303  94.8726 265.2733 14.34217884333390
IRIDIUM 169             
1 43926U 19002E   25145.54837359  .00000291  00000+0  88767-4 0  9998
2 43926  86.4263 187.1822 0003364 114.6045 245.5504 14.38611967334495
IRIDIUM 172             
1 43927U 19002F   25145.40692764  .00000156  00000+0  48619-4 0  9995
2 43927  86.3977 155.6735 0001996  91.5884 268.5540 14.34219235333383
IRIDIUM 175             
1 43928U 19002G   25145.60207791  .00000892  00000+0  13751-3 0  9995
2 43928  86.1484 109.4103 0003365  86.7035 273.4567 14.72234485342219
IRIDIUM 171             
1 43929U 19002H   25145.45767382  .00000094  00000+0  26627-4 0  9997
2 43929  86.3986 155.9155 0002601  84.7867 275.3625 14.34218092333383
IRIDIUM 170             
1 43930U 19002J   25145.47737547  .00000563  00000+0  85336-4 0  9994
2 43930  86.6104 155.6665 0002844  95.9668 264.1873 14.72256296342218
IRIDIUM 167             
1 43931U 19002K   25145.38156288  .00000041  00000+0  77507-5 0  9995
2 43931  86.3977 155.7032 0002819  89.5185 270.6334 14.34217720333376
IRIDIUM 181             
1 56726U 23068S   25145.48582624  .00000184  00000+0  48699-4 0  9993
2 56726  86.4541 218.7070 0002500  80.0200 280.1283 14.43307420106513
IRIDIUM 177             
1 56727U 23068T   25145.42456482  .00000473  00000+0  58682-4 0  9994
2 56727  86.1972 152.9312 0002717  87.3887 272.7645 14.80230520109001
IRIDIUM 174             
1 56728U 23068U   25145.46501958  .00000377  00000+0  55852-4 0  9997
2 56728  86.6111 155.7793 0002088  97.9159 262.2295 14.72272700108973
IRIDIUM 178             
1 56729U 23068V   25145.21084860  .00001096  00000+0  14081-3 0  9996
2 56729  86.6588 187.4178 0002301  89.3328 270.8157 14.80226545108979
IRIDIUM 179             
1 56730U 23068W   25145.47590344  .00001007  00000+0  12906-3 0  9991
2 56730  86.6826 195.1088 0002509  95.3815 264.7693 14.80223097109012
